carrier_name,state,location,address,full_address,lat,long
GIG Logistics,ABIA,Aba North,No 5 Asa Road Former/Old Nitel Building Aba,"GIG Logistics, No 5 Asa Road FormerOld Nitel Building Aba, Aba North, ABIA",5.1109759,7.3708786
GIG Logistics,ABIA,Aba North,G.R.A 30 Brass Street after Jevinic Restaurant Aba,"GIG Logistics, GRA 30 Brass Street after Jevinic Restaurant Aba, Aba North, ABIA",5.1264766,7.3575007
GIG Logistics,ABIA,Umuahia North,"8 Mission Hill, Opposite Villaroy Hotel, Umuahia Main Town","GIG Logistics, 8 Mission Hill, Opposite Villaroy Hotel, Umuahia Main Town, Umuahia North, ABIA",5.5249526,7.4922407
GIG Logistics,ABIA,Umuahia North,"No 60 Aba Road, Close to MTN Office at Aba Road, Umuahia","GIG Logistics, No 60 Aba Road, Close to MTN Office at Aba Road, Umuahia, Umuahia North, ABIA",5.51227,7.4899217
GIG Logistics,ABUJA,Abuja Municipal Area Council (AMAC),"SH 034, Area 1 shopping Plaza, Area 1 Abuja","GIG Logistics, SH 034, Area 1 shopping Plaza, Area 1 Abuja, Abuja Municipal Area Council AMAC, ABUJA",9.0320451,7.4714332
GIG Logistics,ABUJA,Abuja Municipal Area Council (AMAC),"SICCONS PLAZA, Opposite Unity House, Beside Lifemate Furniture, Garki Area 11 Abuja","GIG Logistics, SICCONS PLAZA, Opposite Unity House, Beside Lifemate Furniture, Garki Area 11 Abuja, Abuja Municipal Area Council AMAC, ABUJA",9.0352122,7.4978803
GIG Logistics,ABUJA,Abuja Municipal Area Council (AMAC),"House 38, 3rd Avenue Gwarimpa, Opposite Union Bank Abuja.","GIG Logistics, House 38, 3rd Avenue Gwarimpa, Opposite Union Bank Abuja, Abuja Municipal Area Council AMAC, ABUJA",9.0986048,7.4101948
GIG Logistics,ABUJA,Abuja Municipal Area Council (AMAC),"Suite A1 Bricks and More Plaza, 6th Avenue by 7th Avenue Junction Gwarinpa","GIG Logistics, Suite A1 Bricks and More Plaza, 6th Avenue by 7th Avenue Junction Gwarinpa, Abuja Municipal Area Council AMAC, ABUJA",9.1174121,7.3920088
GIG Logistics,ABUJA,Gwagwalada Area Council.,"Secretariat road beside WAEC, opposite Aso-Oke Hotel, Gwagwalada.","GIG Logistics, Secretariat road beside WAEC, opposite AsoOke Hotel, Gwagwalada, Gwagwalada Area Council, ABUJA",8.940105,7.088327
GIG Logistics,ABUJA,Bwari LGA,"Opposite 2/2 court junction, block 43, Gado Nasko way, along El-rufai Bustop, Kubwa.","GIG Logistics, Opposite 22 court junction, block 43, Gado Nasko way, along Elrufai Bustop, Kubwa, Bwari LGA, ABUJA",9.1538486,7.3219648
GIG Logistics,ABUJA,Bwari LGA,"Opposite Ignobis hotel plot 17 Gidin dutse layout, kubwa.","GIG Logistics, Opposite Ignobis hotel plot 17 Gidin dutse layout, kubwa, Bwari LGA, ABUJA",9.1538486,7.3219648
GIG Logistics,ABUJA,Bwari LGA,"Kukwaba General Park, Kubwa.","GIG Logistics, Kukwaba General Park, Kubwa, Bwari LGA, ABUJA",9.0364078,7.4497559
GIG Logistics,ABUJA,Abuja Municipal Area Council (AMAC),"Shepherd-King plaza beside Remaco fuel station by Police signboard, Lugbe.","GIG Logistics, ShepherdKing plaza beside Remaco fuel station by Police signboard, Lugbe, Abuja Municipal Area Council AMAC, ABUJA",8.9640864,7.3813708
GIG Logistics,Nasarawa,Karu Local Government Area.,No 132 GIZA PLAZA OPP CHRISGOLD PLAZA BESIDE MTN OFFICE MARARABA.,"GIG Logistics, No 132 GIZA PLAZA OPP CHRISGOLD PLAZA BESIDE MTN OFFICE MARARABA, Karu Local Government Area, Nasarawa",9.0228813,7.6088067
GIG Logistics,NIGER,Abuja Municipal Area Council (AMAC),"Mobil Fueling Station along Zuba Express Way, Madalla.","GIG Logistics, Mobil Fueling Station along Zuba Express Way, Madalla, Abuja Municipal Area Council AMAC, NIGER",9.2002569,7.1723953
GIG Logistics,ABUJA,Abuja Municipal Area Council (AMAC),"Plot 113 I.V.W. Osisiogu Street, beside Utako Police Station Utako Abuja.","GIG Logistics, Plot 113 IVW Osisiogu Street, beside Utako Police Station Utako Abuja, Abuja Municipal Area Council AMAC, ABUJA",9.0654089,7.4384946
GIG Logistics,ABUJA,Abuja Municipal Area Council (AMAC),"Abraham Plaza, Suite A13 Plot, 6 A.E. Ekukinam St, Utako Abuja.","GIG Logistics, Abraham Plaza, Suite A13 Plot, 6 AE Ekukinam St, Utako Abuja, Abuja Municipal Area Council AMAC, ABUJA",9.0682178,7.4488779
GIG Logistics,ABUJA,Abuja Municipal Area Council (AMAC),80 Aminu Kano crescents opposite Sherif plaza By Wema Bank Banex wuse 2 Abuja,"GIG Logistics, 80 Aminu Kano crescents opposite Sherif plaza By Wema Bank Banex wuse 2 Abuja, Abuja Municipal Area Council AMAC, ABUJA",9.0825734,7.4683525
GIG Logistics,ABUJA,Gwagwalada Area Counci,"206, Zuba Market, Opp. Lagos Line, Zuba","GIG Logistics, 206, Zuba Market, Opp Lagos Line, Zuba, Gwagwalada Area Counci, ABUJA",9.1803541,7.1824819
GIG Logistics,ADAMAWA,Yola North Local Government Area.,"Plot 2 Bekaji Plaza, Bekaji Karewa Road, By Fire Service Roundabout, Jimeta Yola.","GIG Logistics, Plot 2 Bekaji Plaza, Bekaji Karewa Road, By Fire Service Roundabout, Jimeta Yola, Yola North Local Government Area, ADAMAWA",9.2796268,12.4498474
GIG Logistics,ANAMBRA,Awka South Local Government Area.,"Elite Shopping Complex Opp Crunchies fries, Enugu/Onitsha Expressway, Awka","GIG Logistics, Elite Shopping Complex Opp Crunchies fries, EnuguOnitsha Expressway, Awka, Awka South Local Government Area, ANAMBRA",6.2235454,7.0675671
GIG Logistics,ANAMBRA,ONITSHA NORTH,"2 Awka Road, By DMGS Junction, Beside All Saints Anglican Cathedral, Onitsha","GIG Logistics, 2 Awka Road, By DMGS Junction, Beside All Saints Anglican Cathedral, Onitsha, ONITSHA NORTH, ANAMBRA",6.1531917,6.7897949
GIG Logistics,ANAMBRA,Nnewi North Local Government Area,"73 – Owerri Road, Martina Chukwuma Plaza, Opp. The Salvation Army Church, Umudim Nnewi","GIG Logistics, 73  Owerri Road, Martina Chukwuma Plaza, Opp The Salvation Army Church, Umudim Nnewi, Nnewi North Local Government Area, ANAMBRA",6.010134,6.9164692
GIG Logistics,AKWAIBOM,Eket Local Government Area,"92, Marina Road, Opposite Royalty Hotel, Eket.","GIG Logistics, 92, Marina Road, Opposite Royalty Hotel, Eket, Eket Local Government Area, AKWAIBOM",4.645,7.9358333
GIG Logistics,AKWAIBOM,Uyo Local Government Area.,"3, Monsignor Akpan Avenue, Itam industrial layout, opp Timber Market, Itam","GIG Logistics, 3, Monsignor Akpan Avenue, Itam industrial layout, opp Timber Market, Itam, Uyo Local Government Area, AKWAIBOM",5.0539995,7.8930136
GIG Logistics,AKWAIBOM,Uyo LGA,"No 108 Oron Road, beside First bank,Uyo","GIG Logistics, No 108 Oron Road, beside First bank,Uyo, Uyo LGA, AKWAIBOM",5.0283626,7.9343248
GIG Logistics,BAUCHI,Bauchi LGA,"Shop 7, Mai Jama’a Plaza, Opposite GWARAM and Sons Plaza, Yandoka Road, Bauchi.","GIG Logistics, Shop 7, Mai Jamaa Plaza, Opposite GWARAM and Sons Plaza, Yandoka Road, Bauchi, Bauchi LGA, BAUCHI",10.3188381,9.8312925
GIG Logistics,BAYELSA,Yenagoa LGA,"Kpansia Epia, Opposite Wema Bank by INEC Junction, Yenogoa","GIG Logistics, Kpansia Epia, Opposite Wema Bank by INEC Junction, Yenogoa, Yenagoa LGA, BAYELSA",4.9514468,6.3491975
GIG Logistics,BAYELSA,Yenagoa LGA,"Beside Phone Headquarters, Tamic Road Junction, Okutukutu, by Express, Yenegoa.","GIG Logistics, Beside Phone Headquarters, Tamic Road Junction, Okutukutu, by Express, Yenegoa, Yenagoa LGA, BAYELSA",4.9509807,6.3478314
GIG Logistics,BENUE,Otukpo LGA," No 4 Old Otukpo Rd, Opposite Dester’s by Savannah Roundabout.","GIG Logistics,  No 4 Old Otukpo Rd, Opposite Desters by Savannah Roundabout, Otukpo LGA, BENUE",7.7249042,8.535976
GIG Logistics,BORNU,Maiduguri LGA," 10A, Golden plaza, opposite Elkanemi College of Islamic Theology, Jos Road, Maiduguri","GIG Logistics,  10A, Golden plaza, opposite Elkanemi College of Islamic Theology, Jos Road, Maiduguri, Maiduguri LGA, BORNU",11.8310981,13.1509672
GIG Logistics,Cross River State,Calabar Municipal LGA," 29, Ndidem Usang Iso Road ( Aka Marian Road) Calabar.","GIG Logistics,  29, Ndidem Usang Iso Road  Aka Marian Road Calabar, Calabar Municipal LGA, Cross River State",4.9673183,8.3382882
GIG Logistics,Cross River State,Calabar Municipal LGA," 74, Eta Agbor road, Beside UNICAL, opposite MTN office, Calabar.","GIG Logistics,  74, Eta Agbor road, Beside UNICAL, opposite MTN office, Calabar, Calabar Municipal LGA, Cross River State",4.9498249,8.3479484
GIG Logistics,Delta State,Oshimili South LGA," Asaba Onitsha Express way, By Head Bridge.","GIG Logistics,  Asaba Onitsha Express way, By Head Bridge, Oshimili South LGA, Delta State",6.2116912,6.7095742
GIG Logistics,Delta State,Oshimili South LGA," 445, Nnebisi Road, opposite Zenith Bank, Asaba.","GIG Logistics,  445, Nnebisi Road, opposite Zenith Bank, Asaba, Oshimili South LGA, Delta State",6.211685,6.7095716
GIG Logistics,Delta State,Oshimili South LGA," SUIT 53/54 INDEPENDENCE MALL OKPANAM RD, ASABA.","GIG Logistics,  SUIT 5354 INDEPENDENCE MALL OKPANAM RD, ASABA, Oshimili South LGA, Delta State",40.7766422,-73.8742467
GIG Logistics,Delta State,Ughelli North LGA," 6B, Uduere/Agbara Road, Off Ughelli-Warri Express Way, Ughelli.","GIG Logistics,  6B, UduereAgbara Road, Off UghelliWarri Express Way, Ughelli, Ughelli North LGA, Delta State",5.5001866,5.9938339
GIG Logistics,Delta State,Uvwie LGA," 116, Effurun-Sapele Warri Road, Effurun Opp. Our Ladies High School.","GIG Logistics,  116, EffurunSapele Warri Road, Effurun Opp Our Ladies High School, Uvwie LGA, Delta State",5.5623678,5.7800247
GIG Logistics,Delta State,Udu LGA," DSC Expressway, Beside Freenice Hotel, Opposite Izomo Junction, Ovwian, UDU LGA.","GIG Logistics,  DSC Expressway, Beside Freenice Hotel, Opposite Izomo Junction, Ovwian, UDU LGA, Udu LGA, Delta State",5.4936913,5.7951892
GIG Logistics,Ebonyi State,Abakaliki LGA," 1A, Ogoja Road (Beside Ecobank, Abakaliki)","GIG Logistics,  1A, Ogoja Road Beside Ecobank, Abakaliki, Abakaliki LGA, Ebonyi State",6.3221188,8.1088132
GIG Logistics,Edo State,Oredo LGA," 112, Akpakpava Road, Benin City.","GIG Logistics,  112, Akpakpava Road, Benin City, Oredo LGA, Edo State",6.3421654,5.634315
GIG Logistics,Edo State,Oredo LGA," Shop 1, Omegatron Plaza, 47 Airport Road, Benin City.","GIG Logistics,  Shop 1, Omegatron Plaza, 47 Airport Road, Benin City, Oredo LGA, Edo State",6.3252608,5.6156778
GIG Logistics,Edo State,Etsako West LGA," Okene Express Way, Opp Auchi Polytechnic, Auchi.","GIG Logistics,  Okene Express Way, Opp Auchi Polytechnic, Auchi, Etsako West LGA, Edo State",7.066832,6.2747692
GIG Logistics,Edo State,Esan West LGA," Along Benin -Auchi expressway, Beside Big Joe park, Ekpoma.","GIG Logistics,  Along Benin Auchi expressway, Beside Big Joe park, Ekpoma, Esan West LGA, Edo State",6.7429546,6.1420947
GIG Logistics,Edo State,Ovia North-East LGA," 202, Uselu Lagos Road, Ugbowo Benin City.","GIG Logistics,  202, Uselu Lagos Road, Ugbowo Benin City, Ovia NorthEast LGA, Edo State",6.3930948,5.6195112
GIG Logistics,Edo State,Ikpoba-Okha LGA," 42, Benin-Agbor road, EcoBus Park, Ramat Benin City.","GIG Logistics,  42, BeninAgbor road, EcoBus Park, Ramat Benin City, IkpobaOkha LGA, Edo State",6.3471605,5.6745476
GIG Logistics,Ekiti State,"Ado LGA, "," Soladola petrol station, beside Apc secretariat, along ikere road, Ajilosun Ado Ekiti","GIG Logistics,  Soladola petrol station, beside Apc secretariat, along ikere road, Ajilosun Ado Ekiti, Ado LGA, , Ekiti State",7.5995755,5.2215263
GIG Logistics,Enugu State,Enugu East LGA," No 1, P & T Quarters, Market Road, Opp Osisatech Polytechnic, Enugu.","GIG Logistics,  No 1, P  T Quarters, Market Road, Opp Osisatech Polytechnic, Enugu, Enugu East LGA, Enugu State",40.7766422,-73.8742467
GIG Logistics,Enugu State,Nsukka LGA," No 64 Owerrani, Enugu Road, Nsukka.","GIG Logistics,  No 64 Owerrani, Enugu Road, Nsukka, Nsukka LGA, Enugu State",6.848373,7.3992045
GIG Logistics,Enugu State,Enugu South LGA," 67, Zik Avenue Uwani Enugu.","GIG Logistics,  67, Zik Avenue Uwani Enugu, Enugu South LGA, Enugu State",6.4267051,7.4925068
GIG Logistics,Gombe State,Gombe LGA," Shop 4, el-zaks plaza opposite Conoil filling station along police Headquarters ashaka road, Gombe.","GIG Logistics,  Shop 4, elzaks plaza opposite Conoil filling station along police Headquarters ashaka road, Gombe, Gombe LGA, Gombe State",10.3025408,11.1572157
GIG Logistics,Zamfara State,Gusau LGA," C 1, A A Master Plaza Canteen Road Gusau.","GIG Logistics,  C 1, A A Master Plaza Canteen Road Gusau, Gusau LGA, Zamfara State",12.1663126,6.6745222
GIG Logistics,Imo State,Owerri Municipal LGA," Plot C31, Relief Road, by Relief Junction, Off Egbu Road, Owerri.","GIG Logistics,  Plot C31, Relief Road, by Relief Junction, Off Egbu Road, Owerri, Owerri Municipal LGA, Imo State",5.4682267,7.0175879
GIG Logistics,Imo State,Owerri Municipal LGA," Odonko Plaza, No 7 Nwaturuocha street, Ikenegbu Owerri.","GIG Logistics,  Odonko Plaza, No 7 Nwaturuocha street, Ikenegbu Owerri, Owerri Municipal LGA, Imo State",5.4872754,7.0455908
GIG Logistics,Imo State,Owerri Municipal LGA," Shop 9 Lion Yard Plaza, plot 26A/26B Federal Housing Estate along Umuguma Road New Owerri.","GIG Logistics,  Shop 9 Lion Yard Plaza, plot 26A26B Federal Housing Estate along Umuguma Road New Owerri, Owerri Municipal LGA, Imo State",5.4779585,6.9796126
GIG Logistics,Jigawa State,Dutse LGA," Government House Round-About, Asamau House Block B, Dutse, Jigawa State.","GIG Logistics,  Government House RoundAbout, Asamau House Block B, Dutse, Jigawa State, Dutse LGA, Jigawa State",11.7159714,9.3556736
GIG Logistics,Kaduna State,Kaduna North LGA," Jos Road Plaza. 19/20, Jos Road, by Ahmadu Bello Way, Kaduna.","GIG Logistics,  Jos Road Plaza 1920, Jos Road, by Ahmadu Bello Way, Kaduna, Kaduna North LGA, Kaduna State",10.5153578,7.4304385
GIG Logistics,Kaduna State,Kaduna South LGA," Lagos Garage by Airforce Mami Mando, Kaduna State.","GIG Logistics,  Lagos Garage by Airforce Mami Mando, Kaduna State, Kaduna South LGA, Kaduna State",6.5243793,3.3792057
GIG Logistics,Kaduna State,Kaduna South LGA," Nnamdi Azikiwe Expressway by Command Junction, close to Samrada Fuel Station Kaduna","GIG Logistics,  Nnamdi Azikiwe Expressway by Command Junction, close to Samrada Fuel Station Kaduna, Kaduna South LGA, Kaduna State",10.4548808,7.4056928
GIG Logistics,Kaduna State,Zaria LGA," Shop 2, D2 Plaza No. 18 Sokoto road beside Shagalinku London Hotel, Sabon Gari Zaria.","GIG Logistics,  Shop 2, D2 Plaza No 18 Sokoto road beside Shagalinku London Hotel, Sabon Gari Zaria, Zaria LGA, Kaduna State",51.5072178,-0.1275862
GIG Logistics,Kano State,Nassarawa LGA," 1, Bompai Road by Tafawa Balewa Way, Opp Domino’s Pizza, Kano.","GIG Logistics,  1, Bompai Road by Tafawa Balewa Way, Opp Dominos Pizza, Kano, Nassarawa LGA, Kano State",12.0042159,8.5442423
GIG Logistics,Kano State,Kano Municipal LGA," Shop 2&3 Centro Plaza, Opp BUK Old Site, Kabuga, Kano.","GIG Logistics,  Shop 23 Centro Plaza, Opp BUK Old Site, Kabuga, Kano, Kano Municipal LGA, Kano State",11.9946134,8.478759
GIG Logistics,Katsina State,Katsina LGA," Khadijah house, Zaria Road opposite Kano State House of Assembly","GIG Logistics,  Khadijah house, Zaria Road opposite Kano State House of Assembly, Katsina LGA, Katsina State",12.9815608,7.6222665
GIG Logistics,Katsina State,Katsina LGA," Sarki Muktar Road, Along Kiddies Roundabout, Close to Tukur Jikamshi’s Residence, Katsina.","GIG Logistics,  Sarki Muktar Road, Along Kiddies Roundabout, Close to Tukur Jikamshis Residence, Katsina, Katsina LGA, Katsina State",12.9885067,7.5995007
GIG Logistics,Kebbi State,Birnin Kebbi LGA," Ahmadu Bello Way opp alhaji boye coca cola Depot birnin kebbi, kebbi state.","GIG Logistics,  Ahmadu Bello Way opp alhaji boye coca cola Depot birnin kebbi, kebbi state, Birnin Kebbi LGA, Kebbi State",12.4479506,4.1977723
GIG Logistics,Kogi State,Lokoja LGA," No 1 IBB Way, Adankolo, Lokoja, close to Federal Medical Center.","GIG Logistics,  No 1 IBB Way, Adankolo, Lokoja, close to Federal Medical Center, Lokoja LGA, Kogi State",7.7953731,6.7402273
GIG Logistics,Kwara State,Ilorin West LGA," 151, Ibrahim Taiwo Road, Opposite Chicken Republic, Ilorin.","GIG Logistics,  151, Ibrahim Taiwo Road, Opposite Chicken Republic, Ilorin, Ilorin West LGA, Kwara State",8.4817567,4.5436369
GIG Logistics,Kwara State,Ilorin West LGA," 34B, UNIVERSITY OF ILORIN ROAD, BESIDE REO CAKES PLAZA, TANKE, ILORIN.","GIG Logistics,  34B, UNIVERSITY OF ILORIN ROAD, BESIDE REO CAKES PLAZA, TANKE, ILORIN, Ilorin West LGA, Kwara State",8.537279,4.5444192
GIG Logistics,Lagos State,Ifako-Ijaiye LGA," 568, Abeokuta Expressway, Ajala Bus/Stop Abule-Egba.","GIG Logistics,  568, Abeokuta Expressway, Ajala BusStop AbuleEgba, IfakoIjaiye LGA, Lagos State",6.6636928,3.2887721
GIG Logistics,Lagos State,Ojo LGA," Burger Bus stop, Agbara Diagnosis Center, Badagry Road, Agbara.","GIG Logistics,  Burger Bus stop, Agbara Diagnosis Center, Badagry Road, Agbara, Ojo LGA, Lagos State",6.5114449,3.1114879
GIG Logistics,Lagos State,Ojo LGA," Along Phone Village Road, Electronics Section Alaba International Market.","GIG Logistics,  Along Phone Village Road, Electronics Section Alaba International Market, Ojo LGA, Lagos State",6.4573225,3.1917436
GIG Logistics,Lagos State,Eti-Osa LGA,Cs1 Ground Floor Corner Stone Plaza By Dobbil Avenue,"GIG Logistics, Cs1 Ground Floor Corner Stone Plaza By Dobbil Avenue, EtiOsa LGA, Lagos State",6.4577501,3.1918977
GIG Logistics,Lagos State,Eti-Osa LGA," KM 25, Lekki-Epe Express way, Ajiwe-Ajah.","GIG Logistics,  KM 25, LekkiEpe Express way, AjiweAjah, EtiOsa LGA, Lagos State",6.470019,3.5799675
GIG Logistics,Lagos State,Eti-Osa LGA," KM 22, Lekki-Epe Express way, Opp. Jeffrey’s Plaza, by Abraham Adesanya Roundabout, Ajah.","GIG Logistics,  KM 22, LekkiEpe Express way, Opp Jeffreys Plaza, by Abraham Adesanya Roundabout, Ajah, EtiOsa LGA, Lagos State",6.4411227,3.3688363
GIG Logistics,Lagos State,Eti-Osa LGA," Beside Payless Supermarket Ado Road, Ajah Lagos.","GIG Logistics,  Beside Payless Supermarket Ado Road, Ajah Lagos, EtiOsa LGA, Lagos State",6.4966604,3.5844782
GIG Logistics,Lagos State,Alimosho LGA," 41 Shasha Road, Akowonjo Junction, Dopemu, Lagos.","GIG Logistics,  41 Shasha Road, Akowonjo Junction, Dopemu, Lagos, Alimosho LGA, Lagos State",6.6008384,3.3098837
GIG Logistics,Lagos State,Eti-Osa LGA," Titi’s Place, beside Royal Park Hotel, Km 36, Lekki Epe expressway, Eputu, Awoyaya, Lagos.","GIG Logistics,  Titis Place, beside Royal Park Hotel, Km 36, Lekki Epe expressway, Eputu, Awoyaya, Lagos, EtiOsa LGA, Lagos State",6.4724066,3.7179264
GIG Logistics,Lagos State, Lagos Island LGA," 158 Broad street, Lagos Island. (Behind UBA head office Marina), Lagos.","GIG Logistics,  158 Broad street, Lagos Island Behind UBA head office Marina, Lagos,  Lagos Island LGA, Lagos State",6.455671,3.384439
GIG Logistics,Lagos State,Oshodi-Isolo LGA," 103, Okota Road, Cele.","GIG Logistics,  103, Okota Road, Cele, OshodiIsolo LGA, Lagos State",6.5152182,3.3203
GIG Logistics,Lagos State, Kosofe LGA," Animashaun Plaza, Beside Petrocam fuel station, Near Epe T-junction, Epe.","GIG Logistics,  Animashaun Plaza, Beside Petrocam fuel station, Near Epe Tjunction, Epe,  Kosofe LGA, Lagos State",6.5852018,3.9544323
GIG Logistics,Lagos State,Ikeja LGA," 1st Avenue Road,Festac first gate, beside Inec office, Festac town, Lagos.","GIG Logistics,  1st Avenue Road,Festac first gate, beside Inec office, Festac town, Lagos, Ikeja LGA, Lagos State",6.4621284,3.3012612
GIG Logistics,Lagos State,Oshodi-Isolo LGA," 7, Hospital Rd, Ifako, Gbagada, Lagos.","GIG Logistics,  7, Hospital Rd, Ifako, Gbagada, Lagos, OshodiIsolo LGA, Lagos State",6.5521188,3.3889074
GIG Logistics,Lagos State,Kosofe LGA," GIG Logistics Digital Hub. No 1 Sunday Ogunyade Street, Gbagada Expressway,Gbagada.","GIG Logistics,  GIG Logistics Digital Hub No 1 Sunday Ogunyade Street, Gbagada Expressway,Gbagada, Kosofe LGA, Lagos State",6.5487417,3.3891505
GIG Logistics,Lagos State,Ikeja LGA," 9, Medical Road, former Simbiat Abiola Way, Opp, Zenith Bank.","GIG Logistics,  9, Medical Road, former Simbiat Abiola Way, Opp, Zenith Bank, Ikeja LGA, Lagos State",6.5942085,3.3388074
GIG Logistics,Lagos State,Ikeja LGA," 80, Awolowo Way, Ikeja, Lagos.","GIG Logistics,  80, Awolowo Way, Ikeja, Lagos, Ikeja LGA, Lagos State",6.4430389,3.4213149
GIG Logistics,Lagos State,Oshodi-Isolo LGA," 43, Osolo Way, Ajao Estate, Ekwu Awolo House.","GIG Logistics,  43, Osolo Way, Ajao Estate, Ekwu Awolo House, OshodiIsolo LGA, Lagos State",6.5447963,3.3334788
GIG Logistics,Lagos State,Eti-Osa LGA," 103 Awolowo road, Ikoyi Lagos.","GIG Logistics,  103 Awolowo road, Ikoyi Lagos, EtiOsa LGA, Lagos State",6.4430389,3.4213149
GIG Logistics,Lagos State, Kosofe LGA," 16 Ikosi Road, Ketu Lagos.","GIG Logistics,  16 Ikosi Road, Ketu Lagos,  Kosofe LGA, Lagos State",6.5994648,3.3853699
GIG Logistics,Lagos State, Ikorodu LGA," Sabo Road Garage, Ikorodu.","GIG Logistics,  Sabo Road Garage, Ikorodu,  Ikorodu LGA, Lagos State",6.624471,3.5120285
GIG Logistics,Lagos State,Alimosho LGA," 29,Idimu Road, Opp. Local Govt, Council, Ikotun, Lagos.","GIG Logistics,  29,Idimu Road, Opp Local Govt, Council, Ikotun, Lagos, Alimosho LGA, Lagos State",6.5780823,3.2828885
GIG Logistics,Lagos State,Mushin LGA," 13C Ilupeju Byepass, Ilupeju, Lagos.","GIG Logistics,  13C Ilupeju Byepass, Ilupeju, Lagos, Mushin LGA, Lagos State",6.5463802,3.3611613
GIG Logistics,Lagos State,Ojo LGA," Shop D77 & D78, Abia Plaza, BBA, Lagos Int’ Trade Fair Complex, Lagos.","GIG Logistics,  Shop D77  D78, Abia Plaza, BBA, Lagos Int Trade Fair Complex, Lagos, Ojo LGA, Lagos State",6.459339,3.2485464
GIG Logistics,Lagos State,Eti-Osa LGA,Km 17 Scapular plaza Igbo efon.,"GIG Logistics, Km 17 Scapular plaza Igbo efon, EtiOsa LGA, Lagos State",6.4389443,3.5196443
GIG Logistics,Lagos State,Alimosho LGA," 164, Lagos Abeokuta Express Way, beside Access Bank, Iyana Ipaja, Lagos.","GIG Logistics,  164, Lagos Abeokuta Express Way, beside Access Bank, Iyana Ipaja, Lagos, Alimosho LGA, Lagos State",6.617549,3.303139
GIG Logistics,Lagos State,Lagos Mainland LGA," GIGM Terminal: 20 Ikorodu Express Road, Jibowu, Lagos.","GIG Logistics,  GIGM Terminal 20 Ikorodu Express Road, Jibowu, Lagos, Lagos Mainland LGA, Lagos State",6.518774,3.3675348
GIG Logistics,Lagos State,Eti-Osa LGA," No 1A, Wole Ariyo Street, Beside First Bank, Lekki Phase 1.","GIG Logistics,  No 1A, Wole Ariyo Street, Beside First Bank, Lekki Phase 1, EtiOsa LGA, Lagos State",6.4453933,3.4589836
GIG Logistics,Lagos State,Eti-Osa Local Government Area," Lekki Center, No 2, Admiralty Road, Lekki Phase 1.","GIG Logistics,  Lekki Center, No 2, Admiralty Road, Lekki Phase 1, EtiOsa Local Government Area, Lagos State",6.4489818,3.4704008
GIG Logistics,Lagos State,Eti-Osa Local Government Area," Lekki Center, No 2, Admiralty Road, Lekki Phase 1.","GIG Logistics,  Lekki Center, No 2, Admiralty Road, Lekki Phase 1, EtiOsa Local Government Area, Lagos State",6.4489818,3.4704008
GIG Logistics,Lagos State,Eti-Osa Local Government Area," Ground floor Legends Place Mall Plot 29 Fola Osibo Lekki Phase 1, Lagos.","GIG Logistics,  Ground floor Legends Place Mall Plot 29 Fola Osibo Lekki Phase 1, Lagos, EtiOsa Local Government Area, Lagos State",6.4428915,3.4677671
GIG Logistics,Lagos State,Eti-Osa Local Government Area," Banex Mall Suite V.GL 01, Akiogun Road, Oniru, Lagos.","GIG Logistics,  Banex Mall Suite VGL 01, Akiogun Road, Oniru, Lagos, EtiOsa Local Government Area, Lagos State",6.4327458,3.4567819
Tranex,Lagos,Isolo,"Shohdi isolo 2, Stella Shonaike Street, Airport Road, Ajao Estate","Tranex, Shohdi isolo 2, Stella Shonaike Street, Airport Road, Ajao Estate, Isolo, Lagos",6.5484983,3.3227466
Tranex,Lagos,Victoria Island,"Plot 22, Idowu Taylor Street Victoria Island","Tranex, Plot 22, Idowu Taylor Street Victoria Island, Victoria Island, Lagos",6.4336703,3.4271891
Tranex,Lagos,Ikoyi,"110, Awolowo Road, Ikoyi","Tranex, 110, Awolowo Road, Ikoyi, Ikoyi, Lagos",6.4441315,3.4252939
Tranex,Lagos,Apapa,"25 Warehouse Road, Apapa","Tranex, 25 Warehouse Road, Apapa, Apapa, Lagos",6.4391615,3.3670239
Tranex,Lagos,Lagos Island,"19 Broad Street, Lagos Island","Tranex, 19 Broad Street, Lagos Island, Lagos Island, Lagos",6.4514313,3.3910776
Tranex,Lagos,Amuwo Odofin,"51 Anambra Plaza, Balogun Intâ€™l Market, Trade Fair","Tranex, 51 Anambra Plaza, Balogun Intl Market, Trade Fair, Amuwo Odofin, Lagos",6.4614169,3.2505841
Tranex,Lagos,Ikeja,"12 Simbiat Abiola Way, Ikeja","Tranex, 12 Simbiat Abiola Way, Ikeja, Ikeja, Lagos",6.5924419,3.3393442
Tranex,Lagos,Ikeja,"Allen Avenue, Ikeja","Tranex, Allen Avenue, Ikeja, Ikeja, Lagos",6.6017292,3.3520211
Tranex,Lagos,Ifako Ijaiye," 3A, Ijaiye road, Aguda, Ogba","Tranex,  3A, Ijaiye road, Aguda, Ogba, Ifako Ijaiye, Lagos",6.6269595,3.3368067
Tranex,Ekiti,Ado Ekiti,"Shop A1 Ayo Fayose Shopping Complex, Ikere Road, Ado-Ekiti","Tranex, Shop A1 Ayo Fayose Shopping Complex, Ikere Road, AdoEkiti, Ado Ekiti, Ekiti",7.5825544,5.21546
Tranex,Kwara,Ilorin,"159 Ibrahim Taiwo, Ilorin","Tranex, 159 Ibrahim Taiwo, Ilorin, Ilorin, Kwara",8.487002,4.564447
Tranex,Ondo,Akure South,93 Oyemekun Road Akure,"Tranex, 93 Oyemekun Road Akure, Akure South, Ondo",7.2587527,5.1780366
Tranex,Ogun,Sango Otta,"Shop 38 Obanibasiri Shopping Centre, Sango Otta","Tranex, Shop 38 Obanibasiri Shopping Centre, Sango Otta, Sango Otta, Ogun",6.686099,3.2223134
Tranex,Ogun,Ado Odo/Ota,"16A, Lalubi Street, Oke Ilewo, Abeokuta","Tranex, 16A, Lalubi Street, Oke Ilewo, Abeokuta, Ado OdoOta, Ogun",7.147502,3.3619356
Tranex,Osun,Osogbo,"Moniade Nifaji Mail Off Fakunle Comprehensive High School Gbongan Road, Oshogbo","Tranex, Moniade Nifaji Mail Off Fakunle Comprehensive High School Gbongan Road, Oshogbo, Osogbo, Osun",7.7946132,4.5767428
Tranex,Oyo,Ibadan South West,"43 Ring Road, Sodehinde Area, Roundabout, Ibadan","Tranex, 43 Ring Road, Sodehinde Area, Roundabout, Ibadan, Ibadan South West, Oyo",7.3529462,3.8752682
Tranex,Abia,Aba,"13 Factory Road, Aba","Tranex, 13 Factory Road, Aba, Aba, Abia",5.1175891,7.3704331
Tranex,Abia,Umuahia,"4 Aba Road, Azikiwe Road, Umuahia","Tranex, 4 Aba Road, Azikiwe Road, Umuahia, Umuahia, Abia",5.5284333,7.4933597
Tranex,Akwa Ibom,Uyo,"42 Wellington Bassey way, Uyo","Tranex, 42 Wellington Bassey way, Uyo, Uyo, Akwa Ibom",5.0374837,7.9315222
Tranex,Akwa Ibom,Eket,"42, Grace Bill Road, Eket","Tranex, 42, Grace Bill Road, Eket, Eket, Akwa Ibom",4.6360259,7.9312236
Tranex,Anambra,Onitsha,25 New Market Road Onitsha,"Tranex, 25 New Market Road Onitsha, Onitsha, Anambra",6.1518245,6.7835629
Tranex,Cross River,Calabar,"30, Ndidem Usang Road, Calabar","Tranex, 30, Ndidem Usang Road, Calabar, Calabar, Cross River",4.9757165,8.3417006
Tranex,Delta,Uvwie,"46, Effurun/Sapele Road , Opposite First Bank, Warri","Tranex, 46, EffurunSapele Road , Opposite First Bank, Warri, Uvwie, Delta",5.5285838,5.7738462
Tranex,Delta,Asaba,"12 Dennis Osadebe Road, Asaba","Tranex, 12 Dennis Osadebe Road, Asaba, Asaba, Delta",6.1936671,6.7411881
Tranex,Edo,Oredo,"56 Airport Road, Benin City","Tranex, 56 Airport Road, Benin City, Oredo, Edo",6.3295587,5.6193898
Tranex,Enugu,Enugu North,91 Ogui Road Enugu,"Tranex, 91 Ogui Road Enugu, Enugu North, Enugu",6.447087,7.4991137
Tranex,Imo,Owerri,"63 Wetheral Road , Owerri, RIVERS STATE","Tranex, 63 Wetheral Road , Owerri, RIVERS STATE, Owerri, Imo",5.4805311,7.039828
Tranex,Rivers,Port Harcourt,"50 Mbonu Street, D Line Port Harcourt","Tranex, 50 Mbonu Street, D Line Port Harcourt, Port Harcourt, Rivers",4.8000859,7.0043667
Tranex,Federal Capital Territory,Abuja,"Suite D4, Ahmadu Bello Way, Area 11, Garki, Abuja","Tranex, Suite D4, Ahmadu Bello Way, Area 11, Garki, Abuja, Abuja, Federal Capital Territory",9.0345715,7.4972275
Tranex,Adamawa,Jimeta,"No 30, Atiku Abubakar Road Jimeta Yola","Tranex, No 30, Atiku Abubakar Road Jimeta Yola, Jimeta, Adamawa",9.2034963,12.4953899
Tranex,Bauchi,Bauchi,"10, Jos Road, Gidan Mai Bauchi","Tranex, 10, Jos Road, Gidan Mai Bauchi, Bauchi, Bauchi",10.3205835,9.8192978
Tranex,Benue,Makurdi,"No 9, Vandeika Street, Makurdi","Tranex, No 9, Vandeika Street, Makurdi, Makurdi, Benue",7.7246566,8.5277471
Tranex,Borno,Maiduguri,"270 Sir Kashim Ibrahim Rd, Maiduguri","Tranex, 270 Sir Kashim Ibrahim Rd, Maiduguri, Maiduguri, Borno",11.8500584,12.9845346
Tranex,Gombe,Gombe,"Biu Road, Emeneke Bus Stop, Gombe","Tranex, Biu Road, Emeneke Bus Stop, Gombe, Gombe, Gombe",10.3285088,11.5740553
Tranex,Katsina,Katsina,"110 Sokoto Road, Off IBB Way Katsina","Tranex, 110 Sokoto Road, Off IBB Way Katsina, Katsina, Katsina",12.9886169,7.5994729
Tranex,Kaduna,Kaduna North,"NNIL Building 4, Mohammed Buhari Road, Kaduna","Tranex, NNIL Building 4, Mohammed Buhari Road, Kaduna, Kaduna North, Kaduna",10.5301901,7.4301154
Tranex,Kogi,Lokoja,"3 Ali Close, Off Police Headquarters Lokoja","Tranex, 3 Ali Close, Off Police Headquarters Lokoja, Lokoja, Kogi",7.8104092,6.7462811
Tranex,Kebbi,Birnin Kebbi,"Opposite FineArt, Bello Way, Birnin Kebbi","Tranex, Opposite FineArt, Bello Way, Birnin Kebbi, Birnin Kebbi, Kebbi",12.4543199,4.2003682
Tranex,Nasarawa,Lafia,"32, Abuja Street, Opposite Office Of The Accountant General Of The Federation, Lafia","Tranex, 32, Abuja Street, Opposite Office Of The Accountant General Of The Federation, Lafia, Lafia, Nasarawa",8.5060115,8.5226706
Tranex,Niger,Minna,"39A Kendo Shopping Complex, By Busso Road, Via Yoruba Road, Minna","Tranex, 39A Kendo Shopping Complex, By Busso Road, Via Yoruba Road, Minna, Minna, Niger",9.6134397,6.5407038
Tranex,Kano,Kano,"26B, Post Office Road, by Heritage Bank, Kano","Tranex, 26B, Post Office Road, by Heritage Bank, Kano, Kano, Kano",12.0099661,8.5429285
Tranex,Taraba,Jalingo,"Opposite Redeem People Mission (RPM) Maigana, Jalingo","Tranex, Opposite Redeem People Mission RPM Maigana, Jalingo, Jalingo, Taraba",8.8928524,11.3771496
Tranex,Yobe,Damaturu,"Biu Road, Opposite CID Police Station Damaturu","Tranex, Biu Road, Opposite CID Police Station Damaturu, Damaturu, Yobe",11.7488625,11.9659883
Tranex,Plateau,Jos North,"26 Rwan Pam Street, Jos","Tranex, 26 Rwan Pam Street, Jos, Jos North, Plateau",9.8477585,8.855297
Tranex,Sokoto,Sokoto North,"5, Ahmadu Bello Way, Sokoto, Opposite JAIZ Bank, Sokoto","Tranex, 5, Ahmadu Bello Way, Sokoto, Opposite JAIZ Bank, Sokoto, Sokoto North, Sokoto",13.0479149,5.2324779
Tranex,Zamfara,Gusau,"JJC Building, Opposite AP Filling Station, Zaria Road, Gusau","Tranex, JJC Building, Opposite AP Filling Station, Zaria Road, Gusau, Gusau, Zamfara",12.1489042,6.7160747
Red Star Express,Lagos,Ikeja,"No. 70, International Airport Road, Ikeja, Lagos State.","Red Star Express, No 70, International Airport Road, Ikeja, Lagos State, Ikeja, Lagos",6.5499734,3.3345004
Red Star Express,Lagos,Oshodi-Isolo,"No. 12, Adeola Ajayi Street, off Oludegun Avenue, Mafoluku, Oshodi, Lagos State.","Red Star Express, No 12, Adeola Ajayi Street, off Oludegun Avenue, Mafoluku, Oshodi, Lagos State, OshodiIsolo, Lagos",6.5560357,3.3269999
Red Star Express,Lagos,Lagos Mainland,"No. 4, St. Finbarrs College Road, Akoka, Yaba, Lagos State.","Red Star Express, No 4, St Finbarrs College Road, Akoka, Yaba, Lagos State, Lagos Mainland, Lagos",6.5252646,3.3857827
Red Star Express,Plateau,Jos North,"No. 29, Murtala Muhammed Way, beside Mainstreet Bank, Jos, Plateau State.","Red Star Express, No 29, Murtala Muhammed Way, beside Mainstreet Bank, Jos, Plateau State, Jos North, Plateau",9.9115191,8.8933991
Red Star Express,Lagos,Lagos Mainland,"No. 284, Herbert Macaulay Way, Sabo, Yaba, Lagos State.","Red Star Express, No 284, Herbert Macaulay Way, Sabo, Yaba, Lagos State, Lagos Mainland, Lagos",6.5037246,3.3777684
Red Star Express,Lagos,Surulere,"No. 93, Ojuelegba Road, Lagos State.","Red Star Express, No 93, Ojuelegba Road, Lagos State, Surulere, Lagos",6.509501,3.3635279
Red Star Express,Lagos,Mushin,"34/36, Association Avenue, opposite Total Filling Station, Ilupeju, Lagos State.","Red Star Express, 3436, Association Avenue, opposite Total Filling Station, Ilupeju, Lagos State, Mushin, Lagos",6.5466763,3.3652182
Red Star Express,Lagos,Surulere,"No. 2, Adeniran Ogunsanya Street, Surulere, Lagos State.","Red Star Express, No 2, Adeniran Ogunsanya Street, Surulere, Lagos State, Surulere, Lagos",6.4979704,3.3581647
Red Star Express,Lagos,Ikeja,"No. 40, Oduduwa Way, G.R.A, Ikeja, Lagos State.","Red Star Express, No 40, Oduduwa Way, GRA, Ikeja, Lagos State, Ikeja, Lagos",6.57241,3.3548689
Red Star Express,Lagos,Oshodi-Isolo,"No. 40/42, Old Ewu Road, Mafoluku, Lagos State.","Red Star Express, No 4042, Old Ewu Road, Mafoluku, Lagos State, OshodiIsolo, Lagos",6.5621661,3.3300549
Red Star Express,Lagos,Kosofe,"Zatim Global Service Limited, Block 1, Suite 11, Odua Shopping Complex, (Wema Bank Premises), Ojota, Lagos State.","Red Star Express, Zatim Global Service Limited, Block 1, Suite 11, Odua Shopping Complex, Wema Bank Premises, Ojota, Lagos State, Kosofe, Lagos",6.5843666,3.3771068
Red Star Express,Lagos,Ikeja,"No. 74, Opebi Road, Ikeja, Lagos State.","Red Star Express, No 74, Opebi Road, Ikeja, Lagos State, Ikeja, Lagos",6.5870782,3.3628832
Red Star Express,Lagos,Lagos Island,"Give and Take Shop, Broad Street, Lagos State.","Red Star Express, Give and Take Shop, Broad Street, Lagos State, Lagos Island, Lagos",6.4524337,3.3903842
Red Star Express,Lagos,Lagos Island,"Kakawa Street, behind Bookshop House, CMS, Lagos Island, Lagos State.","Red Star Express, Kakawa Street, behind Bookshop House, CMS, Lagos Island, Lagos State, Lagos Island, Lagos",6.4521341,3.39095
Red Star Express,Lagos,Ikeja,"Address: No. 59, Kudirat Abiola Way, Oregun, Ikeja, Lagos State.","Red Star Express, Address No 59, Kudirat Abiola Way, Oregun, Ikeja, Lagos State, Ikeja, Lagos",6.5996854,3.3659532
Red Star Express,Lagos,Ikeja,"No. 50/52, Toyin Street, Ikeja, Lagos State.","Red Star Express, No 5052, Toyin Street, Ikeja, Lagos State, Ikeja, Lagos",6.5954982,3.3525985
Red Star Express,Lagos,Oshodi-Isolo,"No. 2B, Rasom Street, Isolo, Lagos State.","Red Star Express, No 2B, Rasom Street, Isolo, Lagos State, OshodiIsolo, Lagos",6.5499734,3.3345004
Red Star Express,Lagos,Eti-Osa,"Geetee, Suite 107, Dolphin Estate, Ikoyi, Lagos State.","Red Star Express, Geetee, Suite 107, Dolphin Estate, Ikoyi, Lagos State, EtiOsa, Lagos",6.455967,3.4110393
Red Star Express,Lagos,Lagos Island,"No. 199, Igbosere Road, Ground Floor, Rasaki Place, opposite High Court, Lagos Island, Lagos State.","Red Star Express, No 199, Igbosere Road, Ground Floor, Rasaki Place, opposite High Court, Lagos Island, Lagos State, Lagos Island, Lagos",6.4499335,3.4023622
Red Star Express,Lagos,Ikeja,"No. 30, Allen Avenue, Ikeja, Lagos State.","Red Star Express, No 30, Allen Avenue, Ikeja, Lagos State, Ikeja, Lagos",6.5992862,3.3535704
Red Star Express,Lagos,Lagos Island,"Omazant Suite, 13 Tafawa Balewa Square Complex, Lagos Island, Lagos State.","Red Star Express, Omazant Suite, 13 Tafawa Balewa Square Complex, Lagos Island, Lagos State, Lagos Island, Lagos",6.4469253,3.40137
Red Star Express,Lagos,Apapa,"No. 15, Keffi Street, off Awolowo Road, Apapa, Lagos State.","Red Star Express, No 15, Keffi Street, off Awolowo Road, Apapa, Lagos State, Apapa, Lagos",6.4437613,3.4154141
Red Star Express,Lagos,Ikeja,"Shop H007, Ogba Multi-Purpose Complex, Ogba, Ikeja, Lagos State.","Red Star Express, Shop H007, Ogba MultiPurpose Complex, Ogba, Ikeja, Lagos State, Ikeja, Lagos",6.6302075,3.3432797
Red Star Express,Lagos,Ikorodu,"Plot 243, Platform Plaza, opposite 2nd Mobil Petrol Station, Isawo Road, Agric, Ikorodu, Lagos State.","Red Star Express, Plot 243, Platform Plaza, opposite 2nd Mobil Petrol Station, Isawo Road, Agric, Ikorodu, Lagos State, Ikorodu, Lagos",6.6651339,3.4574079
Red Star Express,Lagos,Shomolu,"Olabode House, No. 216, Ikorodu Road, Lagos State.","Red Star Express, Olabode House, No 216, Ikorodu Road, Lagos State, Shomolu, Lagos",6.5512735,3.3665982
Red Star Express,Lagos,Eti-Osa,"Suite A17, Cherub, beside Chevy View Estate/Oakwood Hotel, Km 18, Lekki-Epe Expressway, Lagos State.","Red Star Express, Suite A17, Cherub, beside Chevy View EstateOakwood Hotel, Km 18, LekkiEpe Expressway, Lagos State, EtiOsa, Lagos",6.4369944,3.5095981
Red Star Express,Lagos,Ojo,"No. 156, Olojo Drive, Alaba International Market, Alaba, Ojo, Lagos State.","Red Star Express, No 156, Olojo Drive, Alaba International Market, Alaba, Ojo, Lagos State, Ojo, Lagos",6.459967,3.2002718
Red Star Express,Lagos,Ojo,"Anupa-LASU Cooperative Multi-Purpose Society Limited, Cooperative Arena, LASU, Ojo, Lagos State.","Red Star Express, AnupaLASU Cooperative MultiPurpose Society Limited, Cooperative Arena, LASU, Ojo, Lagos State, Ojo, Lagos",6.4604447,3.1996409
Red Star Express,Lagos,Ikorodu,"250, Ikorodu Road, Ikorodu, Lagos State.","Red Star Express, 250, Ikorodu Road, Ikorodu, Lagos State, Ikorodu, Lagos",6.6203372,3.4785966
Red Star Express,Lagos,Eti-Osa,"Ajah Agency, Husbra, 1st Floor, Suite 7, Iyabus Plaza, Ado Road, Ajah, Lagos State.","Red Star Express, Ajah Agency, Husbra, 1st Floor, Suite 7, Iyabus Plaza, Ado Road, Ajah, Lagos State, EtiOsa, Lagos",6.4834719,3.5739677
Red Star Express,Lagos,Eti-Osa,"Shop F116, Road 2, Ikota Shopping Complex, Ajah, Lagos State.","Red Star Express, Shop F116, Road 2, Ikota Shopping Complex, Ajah, Lagos State, EtiOsa, Lagos",6.4478704,3.5538797
Red Star Express,Ogun,Ado-Odo/Ota,"Suite 51, Galaxy Shopping Complex, Agbara, Ogun State.","Red Star Express, Suite 51, Galaxy Shopping Complex, Agbara, Ogun State, AdoOdoOta, Ogun",6.5114449,3.1114879
Red Star Express,Ogun,Ado-Odo/Ota,"CRM, beside Access Bank, RCCG Camp, Idiroko, Ogun State.","Red Star Express, CRM, beside Access Bank, RCCG Camp, Idiroko, Ogun State, AdoOdoOta, Ogun",6.6117188,3.0576199
Red Star Express,Ogun,Abeokuta South,"Oke-Ilewo Centre, No. 88, Lalabu Street, Oke-Ilewo, Abeokuta, Ogun State.","Red Star Express, OkeIlewo Centre, No 88, Lalabu Street, OkeIlewo, Abeokuta, Ogun State, Abeokuta South, Ogun",7.1356823,3.3371174
Red Star Express,Ogun,Abeokuta South,"UACN Centre, UACN Complex, Ibara, Abeokuta, Ogun State.","Red Star Express, UACN Centre, UACN Complex, Ibara, Abeokuta, Ogun State, Abeokuta South, Ogun",7.1356823,3.3371174
Red Star Express,Ogun,Abeokuta South,"Agbeloba House, No. 56, Quarry Road, Abeokuta, Ogun State.","Red Star Express, Agbeloba House, No 56, Quarry Road, Abeokuta, Ogun State, Abeokuta South, Ogun",7.1361889,3.3224761
Red Star Express,Ogun,Ijebu Ode,"No. 12, Ibadan Road, beside Old First Bank, Ijebu Ode, Ogun State.","Red Star Express, No 12, Ibadan Road, beside Old First Bank, Ijebu Ode, Ogun State, Ijebu Ode, Ogun",6.8313445,3.9215482
Red Star Express,Ogun,Sagamu,"No. 127, Akarigbo Street, opposite Total Filling Station, Ijokun, Sagamu, Ogun State.","Red Star Express, No 127, Akarigbo Street, opposite Total Filling Station, Ijokun, Sagamu, Ogun State, Sagamu, Ogun",6.8237264,3.6265691
Red Star Express,Nasarawa,Lafia,"Shop 28, Kaura Plaza, opposite PDP Secretariat, Jos Road, Lafia, Nasarawa State.","Red Star Express, Shop 28, Kaura Plaza, opposite PDP Secretariat, Jos Road, Lafia, Nasarawa State, Lafia, Nasarawa",8.5115089,8.5206125
Red Star Express,Kano,Kano Municipal,"No. 139, Muritala Muhammed Way, Kano, Kano State.","Red Star Express, No 139, Muritala Muhammed Way, Kano, Kano State, Kano Municipal, Kano",12.0081355,8.546831
Red Star Express,Rivers,Port Harcourt,"LAAS Group House, No. 206, Aba Road, Port Harcourt, Rivers State.","Red Star Express, LAAS Group House, No 206, Aba Road, Port Harcourt, Rivers State, Port Harcourt, Rivers",4.8170542,7.0096524
Red Star Express,Rivers,Port Harcourt,"Federal Secretariat, (opposite Presidential Hotel), Aba Road, Port Harcourt, Rivers State.","Red Star Express, Federal Secretariat, opposite Presidential Hotel, Aba Road, Port Harcourt, Rivers State, Port Harcourt, Rivers",4.8274313,7.0056638
Red Star Express,Rivers,Port Harcourt,"172A, Aba Road, Barnax Building, Waterlines, Port Harcourt, Rivers State.","Red Star Express, 172A, Aba Road, Barnax Building, Waterlines, Port Harcourt, Rivers State, Port Harcourt, Rivers",4.817321,7.0094392
Red Star Express,Rivers,Port Harcourt,"No. 47, Ikwerre Road, Mile One, Port Harcourt, Rivers State.","Red Star Express, No 47, Ikwerre Road, Mile One, Port Harcourt, Rivers State, Port Harcourt, Rivers",4.7907367,6.9999342
Red Star Express,Imo,Owerri Municipal,"No. 72, Wetheral Road, Owerri, Imo State.","Red Star Express, No 72, Wetheral Road, Owerri, Imo State, Owerri Municipal, Imo",5.4875319,7.0388778
Red Star Express,Akwa Ibom,Ikot Ekpene,"No. 42, Aba Road, Ikot Ekpene, Akwa Ibom State.","Red Star Express, No 42, Aba Road, Ikot Ekpene, Akwa Ibom State, Ikot Ekpene, Akwa Ibom",4.817544,7.0098874
Red Star Express,Rivers,Bonny,"No. 49, Hospital Road, Bonny Island, Rivers State.","Red Star Express, No 49, Hospital Road, Bonny Island, Rivers State, Bonny, Rivers",4.4355523,7.1741962
Red Star Express,Rivers,Obio/Akpor,"Handy Place, No. 33, Elelenwo Road, G.R.A Phase 2, Port Harcourt, Rivers State.","Red Star Express, Handy Place, No 33, Elelenwo Road, GRA Phase 2, Port Harcourt, Rivers State, ObioAkpor, Rivers",4.8264363,6.9951112
Red Star Express,Rivers,Port Harcourt,"No. 95, Aggrey Road, Port Harcourt, Rivers State.","Red Star Express, No 95, Aggrey Road, Port Harcourt, Rivers State, Port Harcourt, Rivers",4.7621878,7.0275744
Red Star Express,Rivers,Obio/Akpor,"Jogrey Ventures Limited, Km 5, East-West Road, Rumudara, Port Harcourt, Rivers State.","Red Star Express, Jogrey Ventures Limited, Km 5, EastWest Road, Rumudara, Port Harcourt, Rivers State, ObioAkpor, Rivers",4.8615922,7.0397834
Red Star Express,Rivers,Port Harcourt,"El-Shaddai Business Centre, No. 3, Azikiwe Road, (Unity Bank Building), Port Harcourt, Rivers State.","Red Star Express, ElShaddai Business Centre, No 3, Azikiwe Road, Unity Bank Building, Port Harcourt, Rivers State, Port Harcourt, Rivers",4.776328,7.0112952
Red Star Express,Rivers,Obio/Akpor,"No. 40, Saro Wiwa Road, Port Harcourt, Rivers State.","Red Star Express, No 40, Saro Wiwa Road, Port Harcourt, Rivers State, ObioAkpor, Rivers",4.8273981,7.0150183
Red Star Express,Rivers,Obio/Akpor,"No. 1, Mbonu Street, D/Line, Woji, Port Harcourt, Rivers State.","Red Star Express, No 1, Mbonu Street, DLine, Woji, Port Harcourt, Rivers State, ObioAkpor, Rivers",4.8029908,7.0067764
Red Star Express,Delta,Uvwie,"Edmart Technologies, Km 7, Refinery Road, Ekpan, Delta State.","Red Star Express, Edmart Technologies, Km 7, Refinery Road, Ekpan, Delta State, Uvwie, Delta",5.5688881,5.7289743
Red Star Express,Anambra,Awka South,"No. 208, Zik’s Avenue, beside Access Bank, opposite NIPOST, Awka, Anambra State.","Red Star Express, No 208, Ziks Avenue, beside Access Bank, opposite NIPOST, Awka, Anambra State, Awka South, Anambra",6.2111761,7.0505202
Red Star Express,Enugu,Enugu North,"Address: No. 77, Ogui Road, Enugu, Enugu State.","Red Star Express, Address No 77, Ogui Road, Enugu, Enugu State, Enugu North, Enugu",6.4458907,7.4977718
Red Star Express,Enugu,Nsukka,"No. 26, University Road, Nsukka, Enugu State.","Red Star Express, No 26, University Road, Nsukka, Enugu State, Nsukka, Enugu",6.866602,7.4115263
Red Star Express,Abuja FCT,Wuse,"Suite AFF10, K-City Plaza, Aminu Kano Crescent, Wuse 2, Abuja FCT.","Red Star Express, Suite AFF10, KCity Plaza, Aminu Kano Crescent, Wuse 2, Abuja FCT, Wuse, Abuja FCT",9.0847149,7.4716689
Red Star Express,Abuja FCT,Wuse,"No. 3, Conakry Street, (close to Nigeria Custom’s Head Office, Wuse 3, Abuja FCT.","Red Star Express, No 3, Conakry Street, close to Nigeria Customs Head Office, Wuse 3, Abuja FCT, Wuse, Abuja FCT",9.0596955,7.4667391
Red Star Express,Abuja FCT,Wuse,"No. 29, Ademola Adetokunbo Crescent, opposite Amigo Supermarket, (beside Fidelity Bank), Wuse 2, Abuja FCT.","Red Star Express, No 29, Ademola Adetokunbo Crescent, opposite Amigo Supermarket, beside Fidelity Bank, Wuse 2, Abuja FCT, Wuse, Abuja FCT",9.0707651,7.4882328
Red Star Express,Benue,Makurdi,"No. 12, Otukpo Road, Makurdi, Benue State.","Red Star Express, No 12, Otukpo Road, Makurdi, Benue State, Makurdi, Benue",7.2973803,8.4853186
Red Star Express,Gombe,Gombe,"No. 77, Jekada Fair Hospital Road, Gombe, Gombe State.","Red Star Express, No 77, Jekada Fair Hospital Road, Gombe, Gombe State, Gombe, Gombe",10.279142,11.1730615
Red Star Express,Kaduna,Kaduna North,"No. 2A, Ali Akilu Road, Kaduna, Kaduna State.","Red Star Express, No 2A, Ali Akilu Road, Kaduna, Kaduna State, Kaduna North, Kaduna",10.5465813,7.4402929
Red Star Express,Kaduna,Kaduna South,"No. 6, Kachia Road, Kaduna State.","Red Star Express, No 6, Kachia Road, Kaduna State, Kaduna South, Kaduna",10.4900041,7.4190369
Red Star Express,Kastina,Katsina,"No. 7, Yahaya Madaki House, opposite Shekina Restaurant, Katsina, Katsina State.","Red Star Express, No 7, Yahaya Madaki House, opposite Shekina Restaurant, Katsina, Katsina State, Katsina, Kastina",12.981824,7.6224387
Red Star Express,Osun,Ife Central,"Beside Hotlink Sport Shop, Obafemi Awolowo University, Ile-Ife, Osun State.","Red Star Express, Beside Hotlink Sport Shop, Obafemi Awolowo University, IleIfe, Osun State, Ife Central, Osun",7.5178216,4.5210229
UPS,Lagos,Shomolu,"Plot 16, Oworonski Expressway, Gbagada Industrial Estate, Lagos","UPS, Plot 16, Oworonski Expressway, Gbagada Industrial Estate, Lagos, Shomolu, Lagos",6.5583517,3.3914817
UPS,Lagos,Lagos Mainland,"Eleganza Building 1, Commercial Road, Apapa, Lagos","UPS, Eleganza Building 1, Commercial Road, Apapa, Lagos, Lagos Mainland, Lagos",6.4376468,3.3730654
UPS,Lagos,Ikeja,"14, Toyin Street, Ikeja, Lagos","UPS, 14, Toyin Street, Ikeja, Lagos, Ikeja, Lagos",6.5958858,3.3507384
UPS,Lagos,Eti-Osa,"95, Awolowo Road, Ikoyi, Lagos","UPS, 95, Awolowo Road, Ikoyi, Lagos, EtiOsa, Lagos",6.4443766,3.4246015
UPS,Lagos,Lagos Island,"137, Broad Street, Lagos Island, Lagos","UPS, 137, Broad Street, Lagos Island, Lagos, Lagos Island, Lagos",6.456087,3.382391
UPS,Lagos,Surulere,"92, Ogunlana Drive, Surulere, Lagos","UPS, 92, Ogunlana Drive, Surulere, Lagos, Surulere, Lagos",6.5053582,3.3520772
UPS,Lagos,Lagos Mainland,"300, Herbert Macaulay Way, Yaba, Lagos","UPS, 300, Herbert Macaulay Way, Yaba, Lagos, Lagos Mainland, Lagos",6.5047348,3.3780282
UPS,Abia,Aba South,"2 Eziukwu Road, Aba","UPS, 2 Eziukwu Road, Aba, Aba South, Abia",5.1126538,7.364878
UPS,Abuja,Abuja Municipal,"Plot 2196 Cadastral Zone A1, by Savannah Suites, Area 3 Garki, Abuja","UPS, Plot 2196 Cadastral Zone A1, by Savannah Suites, Area 3 Garki, Abuja, Abuja Municipal, Abuja",9.0299985,7.4760258
UPS,Ondo,Akure North,"26 Oyemekun Road, Akure","UPS, 26 Oyemekun Road, Akure, Akure North, Ondo",7.2549072,5.185975
UPS,Bauchi,Bauchi,"Horizontal Hotel Building 1, Yandoko Road, Bauchi","UPS, Horizontal Hotel Building 1, Yandoko Road, Bauchi, Bauchi, Bauchi",10.2846722,9.8007115
UPS,Edo,Oredo,"34, Airport Road, Benin City","UPS, 34, Airport Road, Benin City, Oredo, Edo",6.3260946,5.6160727
UPS,Enugu,Enugu North,"87, Ogui Road, Enugu","UPS, 87, Ogui Road, Enugu, Enugu North, Enugu",6.4466421,7.4988906
UPS,Oyo,Ibadan South-West,"95, Moshood Abiola Way, Olusanya Ring Road","UPS, 95, Moshood Abiola Way, Olusanya Ring Road, Ibadan SouthWest, Oyo",7.3458061,3.8757119
UPS,Kwara,Ilorin West,"145, Ibrahim Taiwo Road, Ilorin","UPS, 145, Ibrahim Taiwo Road, Ilorin, Ilorin West, Kwara",8.4826015,4.5550892
UPS,Platea,Jos South,"37, Rwang Pam Street, Jos","UPS, 37, Rwang Pam Street, Jos, Jos South, Platea",9.9212401,8.8885342
UPS,Kaduna,Kaduna North,"5, Ali Akilu Road, Kaduna","UPS, 5, Ali Akilu Road, Kaduna, Kaduna North, Kaduna",10.5466423,7.440354
UPS,Kano,Kano Municipal,"61, Murtala Muhammed Way, Kano","UPS, 61, Murtala Muhammed Way, Kano, Kano Municipal, Kano",12.0072271,8.5467148
UPS,Kogi,Lokoja,"KPC Shop 313, Adankolo Junction, Lakoja","UPS, KPC Shop 313, Adankolo Junction, Lakoja, Lokoja, Kogi",7.7883855,6.7328704
UPS,Borno,Maiduguri Metropolitan Council,"Sir Kashim Ibrahim Way, West End Hotel, Maiduguri","UPS, Sir Kashim Ibrahim Way, West End Hotel, Maiduguri, Maiduguri Metropolitan Council, Borno",11.8310981,13.1509672
UPS,Abia,Onitsha North,"99, Upper New Market, Onitsha","UPS, 99, Upper New Market, Onitsha, Onitsha North, Abia",6.1623902,6.8029489
UPS,Imo,Owerri Urban,"130, Wetheral Road, Owerri","UPS, 130, Wetheral Road, Owerri, Owerri Urban, Imo",5.4781131,7.0395028
UPS,Rivers,Obio-Akpor,"70, Evo Road, GRA Phase II, Port Harcourt","UPS, 70, Evo Road, GRA Phase II, Port Harcourt, ObioAkpor, Rivers",4.8205232,6.9967853
UPS,Sokoto,Sokoto North,"6A Abdulahi Fodio Road, Sokoto","UPS, 6A Abdulahi Fodio Road, Sokoto, Sokoto North, Sokoto",13.0567042,5.2213179
UPS,Akwa Ibom,Nsit Ibom,"45, Oron Road, Uyo","UPS, 45, Oron Road, Uyo, Nsit Ibom, Akwa Ibom",5.0322739,7.9313799
UPS,Delta,Uvwie,"2, Effurun-Sapele Road, Effurun, Warri","UPS, 2, EffurunSapele Road, Effurun, Warri, Uvwie, Delta",5.5267618,5.7720159
UPS,Adamawa,Yola North,"51, Mohammed Mustapha Way, Jimeta, Yola","UPS, 51, Mohammed Mustapha Way, Jimeta, Yola, Yola North, Adamawa",9.2797299,12.4584676
DHL,LAGOS,Lagos Island,"1302A, Akin Adesola Street, Victoria Island, Lagos","DHL, 1302A, Akin Adesola Street, Victoria Island, Lagos, Lagos Island, LAGOS",6.4263984,3.4241451
DHL,LAGOS,Lagos Island,"NIM Building, Plot 22 Idowu Taylor street, Victoria Island Lagos","DHL, NIM Building, Plot 22 Idowu Taylor street, Victoria Island Lagos, Lagos Island, LAGOS",6.4336703,3.4271891
DHL,LAGOS,Lagos Island,"Plot 230 Muri Okunola street, Victoria Island Lagos","DHL, Plot 230 Muri Okunola street, Victoria Island Lagos, Lagos Island, LAGOS",6.4325175,3.4373206
DHL,LAGOS,Lagos Island,"283 Ajose Adeogun, Victoria Island, Lagos","DHL, 283 Ajose Adeogun, Victoria Island, Lagos, Lagos Island, LAGOS",6.4313932,3.4357127
DHL,LAGOS,Lagos Island,"Kofo Abayomi street, Victoria Island Lagos","DHL, Kofo Abayomi street, Victoria Island Lagos, Lagos Island, LAGOS",6.4353559,3.4168486
DHL,LAGOS,Eti Osa,"32 Awolowo road, Ikoyi, Lagos","DHL, 32 Awolowo road, Ikoyi, Lagos, Eti Osa, LAGOS",6.4427499,3.4117243
DHL,LAGOS,Eti Osa,"140 Awolowo road, Ikoyi, Lagos","DHL, 140 Awolowo road, Ikoyi, Lagos, Eti Osa, LAGOS",6.4421299,3.4201637
DHL,LAGOS,Ibeju Lekki,"8 Eleko Beach road, Lekki, Lagos","DHL, 8 Eleko Beach road, Lekki, Lagos, Ibeju Lekki, LAGOS",6.4713651,3.8447756
DHL,LAGOS,Ibeju Lekki,"Yomade Shopping Mall, Awoyaya, Ajah, Lagos","DHL, Yomade Shopping Mall, Awoyaya, Ajah, Lagos, Ibeju Lekki, LAGOS",6.438377,3.5258189
DHL,LAGOS,Epe,"Km 19 Lekki/Epe Express Way, Cherub Mall, Lagos","DHL, Km 19 LekkiEpe Express Way, Cherub Mall, Lagos, Epe, LAGOS",6.5684329,3.9412828
DHL,LAGOS,Epe,"Km 40 Lekki Epe Expressway, Eputu-Ibe, Lagos","DHL, Km 40 Lekki Epe Expressway, EputuIbe, Lagos, Epe, LAGOS",6.4763838,3.7590591
DHL,LAGOS,Eti Osa,"Shop 17, 1st Floor, 36 Agungi road, Lekki, Lagos","DHL, Shop 17, 1st Floor, 36 Agungi road, Lekki, Lagos, Eti Osa, LAGOS",6.4427238,3.5161577
DHL,LAGOS,Eti Osa,"Oshodi Isolo Expressway, Lagos","DHL, Oshodi Isolo Expressway, Lagos, Eti Osa, LAGOS",6.5312609,3.3245859
DHL,LAGOS,Ibeju Lekki,"G4 VGC Shopping Complex, Lekki, Lagos","DHL, G4 VGC Shopping Complex, Lekki, Lagos, Ibeju Lekki, LAGOS",6.4569054,3.8858955
DHL,LAGOS,Ibeju Lekki,"Suite 87, Sebuff, Osupa, Lekki, Lagos","DHL, Suite 87, Sebuff, Osupa, Lekki, Lagos, Ibeju Lekki, LAGOS",6.4569054,3.8858955
DHL,LAGOS,Lagos Island,"44 Obalende road, Lagos Island Lagos","DHL, 44 Obalende road, Lagos Island Lagos, Lagos Island, LAGOS",6.4495903,3.4117671
DHL,LAGOS,Ajeromi Ifelodun,"196 Oshodi Apapa Expressway, Ilasamaja, Lagos","DHL, 196 Oshodi Apapa Expressway, Ilasamaja, Lagos, Ajeromi Ifelodun, LAGOS",6.5194157,3.334517
DHL,LAGOS,Oshodi Isolo,"Oshodi Isolo Expressway, Lagos","DHL, Oshodi Isolo Expressway, Lagos, Oshodi Isolo, LAGOS",6.5471785,3.3365195
DHL,LAGOS,Oshodi Isolo,"18/20 Osolo way, Lagos","DHL, 1820 Osolo way, Lagos, Oshodi Isolo, LAGOS",6.5482721,3.3321055
DHL,LAGOS,Oshodi Isolo,"30 Osolo way, Isolo, Lagos","DHL, 30 Osolo way, Isolo, Lagos, Oshodi Isolo, LAGOS",6.5457163,3.3328181
DHL,LAGOS,Mushin,"Total Nigeria Plc, Mushin, Lagos","DHL, Total Nigeria Plc, Mushin, Lagos, Mushin, LAGOS",6.535233,3.3489671
DHL,LAGOS,Ifako Ijaiye,"296 Agege Motor Road, Chalenge, Lagos","DHL, 296 Agege Motor Road, Chalenge, Lagos, Ifako Ijaiye, LAGOS",6.7274129,3.2541573
DHL,LAGOS,Ikeja,"MMIA Cargo Section, Nahco Ikeja, Lagos","DHL, MMIA Cargo Section, Nahco Ikeja, Lagos, Ikeja, LAGOS",6.5673649,3.319691
DHL,LAGOS,Shomolu,"31, Fola Agoro street, Shomolu, Lagos","DHL, 31, Fola Agoro street, Shomolu, Lagos, Shomolu, LAGOS",6.5234787,3.378524
DHL,LAGOS,Kosofe,"11, Olorunlogbon street, Anthony Village, Lagos","DHL, 11, Olorunlogbon street, Anthony Village, Lagos, Kosofe, LAGOS",6.5613354,3.3702463
DHL,LAGOS,Ikeja,"134 Ipaja Road, Agege, Lagos","DHL, 134 Ipaja Road, Agege, Lagos, Ikeja, LAGOS",6.6252991,3.3148207
DHL,LAGOS,Alimosho,"406 Lagos Abeokuta Expressway, Abule-Egba, Lagos","DHL, 406 Lagos Abeokuta Expressway, AbuleEgba, Lagos, Alimosho, LAGOS",6.6633235,3.2856646
DHL,LAGOS,Ikeja,"Abeokuta Expressway, Agege, Lagos","DHL, Abeokuta Expressway, Agege, Lagos, Ikeja, LAGOS",6.6154667,3.2713533
DHL,LAGOS,Ikeja,"114/116 Ogba Road, Ikeja, Lagos","DHL, 114116 Ogba Road, Ikeja, Lagos, Ikeja, LAGOS",6.6174846,3.3337723
DHL,LAGOS,Ifako Ijaiye,"Shop C33 Greenland Shopping Complex, Iju Road, Lagos","DHL, Shop C33 Greenland Shopping Complex, Iju Road, Lagos, Ifako Ijaiye, LAGOS",6.6355845,3.3242495
DHL,LAGOS,Alimosho,"Folarin street, Alimosho, Iyana Ipaja, Lagos","DHL, Folarin street, Alimosho, Iyana Ipaja, Lagos, Alimosho, LAGOS",6.6195145,3.2998689
DHL,LAGOS,Alimosho,"Suite 9, Adonai Plaza, 80, Egbeda, Lagos","DHL, Suite 9, Adonai Plaza, 80, Egbeda, Lagos, Alimosho, LAGOS",6.6020235,3.3019296
DHL,LAGOS,Agege,"12 Ijaiye Ogba road, Akilo, Lagos","DHL, 12 Ijaiye Ogba road, Akilo, Lagos, Agege, LAGOS",6.623153,3.3280016
DHL,LAGOS,Alimosho,"119 Akowonjo Road, Egbeda, Lagos","DHL, 119 Akowonjo Road, Egbeda, Lagos, Alimosho, LAGOS",6.6015652,3.3015794
DHL,LAGOS,Kosofe,"47 Diya street, Ifako Gbagada, Lagos","DHL, 47 Diya street, Ifako Gbagada, Lagos, Kosofe, LAGOS",6.5541365,3.3897788
DHL,LAGOS,Ikeja,"MMA2 Domestic Terminal, Ikeja Lagos.","DHL, MMA2 Domestic Terminal, Ikeja Lagos, Ikeja, LAGOS",6.5846362,3.333078
DHL,LAGOS,Oshodi Isolo,"1, Mohan close, Okota Lagos","DHL, 1, Mohan close, Okota Lagos, Oshodi Isolo, LAGOS",6.5129751,3.3220613
DHL,LAGOS,Agege,"Iju Road, Pen Cinema, Agege, Lagos","DHL, Iju Road, Pen Cinema, Agege, Lagos, Agege, LAGOS",6.627278,3.3227165
DHL,LAGOS,Agege,"61 Gobbi Plaza, Egbe, Lagos","DHL, 61 Gobbi Plaza, Egbe, Lagos, Agege, LAGOS",6.5437023,3.275967
DHL,LAGOS,Amuwo Odofin,"Festac Town Partner, 2 Avenue 205 road, House 9, Festac, Lagos","DHL, Festac Town Partner, 2 Avenue 205 road, House 9, Festac, Lagos, Amuwo Odofin, LAGOS",6.4619433,3.2963908
DHL,LAGOS,Mushin,"Total Nigeria PLC, Ilupeju 1, Lagos","DHL, Total Nigeria PLC, Ilupeju 1, Lagos, Mushin, LAGOS",6.5536484,3.3566738
DHL,LAGOS,Kosofe,"Tinpet Filling Station, Agbara Station, Lagos","DHL, Tinpet Filling Station, Agbara Station, Lagos, Kosofe, LAGOS",6.5114449,3.1114879
DHL,LAGOS,Apapa,"Total Nigeria PLC, Tin Can, Apapa, Lagos","DHL, Total Nigeria PLC, Tin Can, Apapa, Lagos, Apapa, LAGOS",6.4593211,3.3614145
DHL,LAGOS,Kosofe,"Total Nigeria PLC, Onigbogbo, Maryland, Lagos","DHL, Total Nigeria PLC, Onigbogbo, Maryland, Lagos, Kosofe, LAGOS",6.576421,3.365344
DHL,LAGOS,Ikeja,"LUTH Premises, Idi Araba, Lagos","DHL, LUTH Premises, Idi Araba, Lagos, Ikeja, LAGOS",6.5176223,3.3537453
DHL,ABUJA, Abuja Municipal Area Council (AMAC),"Suite 30, Habiba Plaza, Maitama, Abuja","DHL, Suite 30, Habiba Plaza, Maitama, Abuja,  Abuja Municipal Area Council AMAC, ABUJA",9.1038189,7.4924431
DHL,ABUJA, Abuja Municipal Area Council (AMAC),"National Assembly Complex, Three Arms Zone, Abuja","DHL, National Assembly Complex, Three Arms Zone, Abuja,  Abuja Municipal Area Council AMAC, ABUJA",9.0682021,7.5110871
DHL,ABUJA,Abuja Municipal Area,"Allstates Travels Transcorp Hilton Hotel, Maitama, Abuja","DHL, Allstates Travels Transcorp Hilton Hotel, Maitama, Abuja, Abuja Municipal Area, ABUJA",9.0742854,7.4949809
DHL,ABUJA, Abuja Municipal Area Council (AMAC),"911 Mall, Suite GS 10, 70 Usuma Street, Maitama, Abuja","DHL, 911 Mall, Suite GS 10, 70 Usuma Street, Maitama, Abuja,  Abuja Municipal Area Council AMAC, ABUJA",9.0767282,7.498079
DHL,ABUJA, Abuja Municipal Area Council (AMAC),"Total Nigeria Plc Opposite Police HQ, Asokoro, Abuja","DHL, Total Nigeria Plc Opposite Police HQ, Asokoro, Abuja,  Abuja Municipal Area Council AMAC, ABUJA",9.0533161,7.484598
DHL,ABUJA,Abuja Municipal Area Council (AMAC),"Nanet Suite, Central Area, Abuja","DHL, Nanet Suite, Central Area, Abuja, Abuja Municipal Area Council AMAC, ABUJA",8.9636841,7.4538753
DHL,ABUJA,Abuja Municipal Area Council (AMAC),"Abuja Shopping Mall, Suite C9, Zone 3, Abuja","DHL, Abuja Shopping Mall, Suite C9, Zone 3, Abuja, Abuja Municipal Area Council AMAC, ABUJA",9.0604358,7.4689257
DHL,ABUJA,Abuja Municipal Area Council (AMAC,"Ralph Sodehinde Street, Central Business District, Abuja","DHL, Ralph Sodehinde Street, Central Business District, Abuja, Abuja Municipal Area Council AMAC, ABUJA",9.0540758,7.4999921
DHL,RIVERS,Oyigbo,"28, Location Road, by Eagle Plaza, Oyingbo, Port Harcourt","DHL, 28, Location Road, by Eagle Plaza, Oyingbo, Port Harcourt, Oyigbo, RIVERS",5.1195184,7.3298962
DHL,RIVERS,Obio-Akpor,"10 Old Refinery Road, Akpajo, Port Harcourt","DHL, 10 Old Refinery Road, Akpajo, Port Harcourt, ObioAkpor, RIVERS",4.8516795,7.0631611
DHL,RIVERS,Obio-Akpor,"Along PHC Aba Express Rumuobiakani, Port Harcourt","DHL, Along PHC Aba Express Rumuobiakani, Port Harcourt, ObioAkpor, RIVERS",4.7703602,7.0169032
DHL,RIVERS,Obio-Akpor,"140 Woji Road Village by Culvet, Port Harcourt","DHL, 140 Woji Road Village by Culvet, Port Harcourt, ObioAkpor, RIVERS",4.8256366,7.0493979
DHL,RIVERS,Obio-Akpor,"Charlinks Tours Travel Agency Sonia Plaza, YKC Roundabout, Woji, Port Harcourt","DHL, Charlinks Tours Travel Agency Sonia Plaza, YKC Roundabout, Woji, Port Harcourt, ObioAkpor, RIVERS",4.8214116,7.0540427
DHL,RIVERS,Obio-Akpor,"19 Alcon Road, Woji, Port Harcourt","DHL, 19 Alcon Road, Woji, Port Harcourt, ObioAkpor, RIVERS",4.8175206,7.0591405
DHL,RIVERS,Oyigbo,"95 Old Aba road, Rumubiakani, Port Harcourt","DHL, 95 Old Aba road, Rumubiakani, Port Harcourt, Oyigbo, RIVERS",4.8359833,7.0324751
DHL,RIVERS,Oyigbo,"Eugene Plaza opposite RCCG, Woji road off Old Aba road, Port Harcourt","DHL, Eugene Plaza opposite RCCG, Woji road off Old Aba road, Port Harcourt, Oyigbo, RIVERS",4.8403259,7.0409102
DHL,RIVERS,Obio-Akpor,"16B Okporo Road, Rumuodara, Port Harcourt","DHL, 16B Okporo Road, Rumuodara, Port Harcourt, ObioAkpor, RIVERS",4.8423373,7.0386531
DHL,OGUN,Imeko Afon,"6, Matiku Street, Obasanjo Way, Ita Eko, Abeokuta, Ogun state.","DHL, 6, Matiku Street, Obasanjo Way, Ita Eko, Abeokuta, Ogun state, Imeko Afon, OGUN",7.1432072,3.3286785
DHL,OGUN,Odeda,"66, Ibadan Road, Ogun state.","DHL, 66, Ibadan Road, Ogun state, Odeda, OGUN",7.1691552,3.3587956
DHL,OGUN,Ikenne,"Babcock University, Ilisan Remo Ogun state.","DHL, Babcock University, Ilisan Remo Ogun state, Ikenne, OGUN",6.8920758,3.7181452
DHL,OYO,Ibadan North-west,"72 Fajuyi Road, Dugbe, Ibadan Oyo state.","DHL, 72 Fajuyi Road, Dugbe, Ibadan Oyo state, Ibadan Northwest, OYO",7.3989476,3.8886049
ABC Logistics,Taraba,Jalingo,"66 HAMMARUWA WAY,JALINGO","ABC Logistics, 66 HAMMARUWA WAY,JALINGO, Jalingo, Taraba",8.8928524,11.3771496
ABC Logistics,Zamfara,Gusau,"BEHIND INEC OFFICE HANYAA TUDUN WADA, GUSAU","ABC Logistics, BEHIND INEC OFFICE HANYAA TUDUN WADA, GUSAU, Gusau, Zamfara",12.1628466,6.6745042
ABC Logistics,Abia,Aba North,"Shop 8, O.J Plaza, Ariaria International Market, Aba.","ABC Logistics, Shop 8, OJ Plaza, Ariaria International Market, Aba, Aba North, Abia",5.1136793,7.3346508
ABC Logistics,Abia,Aba South,"2, Ikot Ekpene Road, Aba.","ABC Logistics, 2, Ikot Ekpene Road, Aba, Aba South, Abia",5.1147335,7.3839434
ABC Logistics,Abia,Umuahia,"8 MISSION HILL, UMUAHIA","ABC Logistics, 8 MISSION HILL, UMUAHIA, Umuahia, Abia",5.5356728,7.466472
ABC Logistics,Akwa Ibom,Uyo,"Long distance bus terminal, Itam park Uyo","ABC Logistics, Long distance bus terminal, Itam park Uyo, Uyo, Akwa Ibom",5.0527113,7.894179
ABC Logistics,Akwa IbomEket,,"2 UDO UMOH STREET, EKET.","ABC Logistics, 2 UDO UMOH STREET, EKET, , Akwa IbomEket",4.6387304,7.933787
ABC Logistics,Rivers,Port Harcourt,"EAST/WEST ROAD, ELIOZU JUNCTION, PORT-HARCOURT","ABC Logistics, EASTWEST ROAD, ELIOZU JUNCTION, PORTHARCOURT, Port Harcourt, Rivers",4.8600129,7.0217154
ABC Logistics,Rivers,Port Harcourt,"Egwurugwu plaza ,No 14, Rumueprikom Road, Wimpey Junction, Port Harcourt","ABC Logistics, Egwurugwu plaza ,No 14, Rumueprikom Road, Wimpey Junction, Port Harcourt, Port Harcourt, Rivers",4.8309355,6.9736987
ABC Logistics,Rivers,Port Harcourt,"No 1. Evo Road, GRA Phase 2 Waterline, Port Harcourt","ABC Logistics, No 1 Evo Road, GRA Phase 2 Waterline, Port Harcourt, Port Harcourt, Rivers",4.8163308,7.0052664
ABC Logistics,Abuja,Abuja Municipal Area Council (AMAC),"plot 1850 Cadestral Zone 807, Near Mabuashi modern market Jahi, Abuja","ABC Logistics, plot 1850 Cadestral Zone 807, Near Mabuashi modern market Jahi, Abuja, Abuja Municipal Area Council AMAC, Abuja",9.1016931,7.4484021
ABC Logistics,Abuja,Abuja Municipal Area Council (AMAC),"No. 36, Ekukinam Street, Utako District (Off Berger Junction)","ABC Logistics, No 36, Ekukinam Street, Utako District Off Berger Junction, Abuja Municipal Area Council AMAC, Abuja",9.0664075,7.4387659
ABC Logistics,Abuja,Gwagwalada,"Ground floor wing B, Kaita plaza, Along Abuja – Lokoja Expressway Gwagwalada, Abuja.","ABC Logistics, Ground floor wing B, Kaita plaza, Along Abuja  Lokoja Expressway Gwagwalada, Abuja, Gwagwalada, Abuja",8.9433145,7.0945179
ABC Logistics,Abuja,Bwari,"Suite 9, Zulahatu Complex Inside Amasco Filling Station, by 2nd Gate, Kubwa, Abuja.","ABC Logistics, Suite 9, Zulahatu Complex Inside Amasco Filling Station, by 2nd Gate, Kubwa, Abuja, Bwari, Abuja",9.0275488,7.5670361
ABC Logistics,Abuja,Bwari Area Council,"Suite 1, Delphia Centre, Opposite Flyover Hotel, Along Building materials market, FHA Lugbe Abuja","ABC Logistics, Suite 1, Delphia Centre, Opposite Flyover Hotel, Along Building materials market, FHA Lugbe Abuja, Bwari Area Council, Abuja",8.9849418,7.3742807
ABC Logistics,Abuja,Abuja municipal Area Council (AMAC),"No 12 Pa Micheal Imoudu Avenue, 32 crescent, 3rd Avenue Opp. Vantage Furniture Gwarimpa.","ABC Logistics, No 12 Pa Micheal Imoudu Avenue, 32 crescent, 3rd Avenue Opp Vantage Furniture Gwarimpa, Abuja municipal Area Council AMAC, Abuja",9.0976917,7.4123681
ABC Logistics,Imo,Owerri Municipal,"Plot 9, Egbu Road, Owerri.","ABC Logistics, Plot 9, Egbu Road, Owerri, Owerri Municipal, Imo",5.4784286,7.0435955
ABC Logistics,Imo,Ahiazu-Mbaise,"Alpha Paradise Hotel, by Ahiara Junction, Ahiazu-Mbaise.","ABC Logistics, Alpha Paradise Hotel, by Ahiara Junction, AhiazuMbaise, AhiazuMbaise, Imo",5.5245914,7.266984
ABC Logistics,Imo,Owerri Orlu,"Opposite Orlu L.G.A Secretariat, Ihioma Road, Orlu.","ABC Logistics, Opposite Orlu LGA Secretariat, Ihioma Road, Orlu, Owerri Orlu, Imo",5.5096455,7.0390904
ABC Logistics,Imo,Owerri-Manicipal,PVM WAREHOUSE Owerri Imo State,"ABC Logistics, PVM WAREHOUSE Owerri Imo State, OwerriManicipal, Imo",5.4682267,7.0175879
ABC Logistics,Cross-RiverCalabar South,Calabar South,"75, IBB Way, Calabar, Cross-River.","ABC Logistics, 75, IBB Way, Calabar, CrossRiver, Calabar South, CrossRiverCalabar South",4.9624471,8.3439263
ABC Logistics,Cross-River Ikom,,IKOM City Cross River State,"ABC Logistics, IKOM City Cross River State, , CrossRiver Ikom",5.9616504,8.7205877
ABC Logistics,Enugu,Udi,"BESIDE UNION BANK PLC, ENUGU ROAD, 9TH MILE CORNER, NGWO","ABC Logistics, BESIDE UNION BANK PLC, ENUGU ROAD, 9TH MILE CORNER, NGWO, Udi, Enugu",6.4592681,7.5339701
ABC Logistics,Enugu,Enugu North,"122, Ogui Road, Enugu.","ABC Logistics, 122, Ogui Road, Enugu, Enugu North, Enugu",6.4451344,7.4983034
ABC Logistics,Enugu,Nsukka,"KM 17, 2ND GATE, BESIDE FIRST BANK, UNN NSUKKA","ABC Logistics, KM 17, 2ND GATE, BESIDE FIRST BANK, UNN NSUKKA, Nsukka, Enugu",6.866602,7.4115263
ABC Logistics,Oyo ,Ibadan,"BLOCK A SHOP,19 JOKE PLAZA BESIDE TRANS AMUSEMENT PARK, BODIJA IBADAN","ABC Logistics, BLOCK A SHOP,19 JOKE PLAZA BESIDE TRANS AMUSEMENT PARK, BODIJA IBADAN, Ibadan, Oyo ",7.4373831,3.9089393
ABC Logistics,Oyo ,Ibadan North,"NEW IFE ROAD, OPP. NIG. BREWERIES BY ACORN FILLING STATION, Gbagi Express IBADAN","ABC Logistics, NEW IFE ROAD, OPP NIG BREWERIES BY ACORN FILLING STATION, Gbagi Express IBADAN, Ibadan North, Oyo ",7.2828562,3.8594624
ABC Logistics,Ekiti,Ado Ekiti,"Ado Ekiti City, Ekiti State","ABC Logistics, Ado Ekiti City, Ekiti State, Ado Ekiti, Ekiti",7.619838,5.224238
ABC Logistics,Osun,Osogbo,"5,OLORUNSOGO STREET, KOLABALOGUN AREA, OSOGBO","ABC Logistics, 5,OLORUNSOGO STREET, KOLABALOGUN AREA, OSOGBO, Osogbo, Osun",7.788108,4.5709168
ABC Logistics,Edo ,Esan West,"10 UDO STREET BEHIND POLICE BARRACK ROAD,EKPOMA","ABC Logistics, 10 UDO STREET BEHIND POLICE BARRACK ROAD,EKPOMA, Esan West, Edo ",6.739785,6.1459343
ABC Logistics,Edo ,Oredo,"ANAYOCHUKWU FILLING STATION, OPPOSITE CONOIL, FILLING STATION, OLUKU, BENIN CITY","ABC Logistics, ANAYOCHUKWU FILLING STATION, OPPOSITE CONOIL, FILLING STATION, OLUKU, BENIN CITY, Oredo, Edo ",6.4200702,5.6032973
ABC Logistics,Edo ,Etsako West,"87 JATTU ROAD,OPP. POLICE STATION,AIBOTSE, AUCHI","ABC Logistics, 87 JATTU ROAD,OPP POLICE STATION,AIBOTSE, AUCHI, Etsako West, Edo ",7.088245,6.288822
ABC Logistics,Edo ,Oredo,"120 YOUTH HOUSE, AKPAVPAVA ROAD, BENIN CITY","ABC Logistics, 120 YOUTH HOUSE, AKPAVPAVA ROAD, BENIN CITY, Oredo, Edo ",6.342419,5.6347445
ABC Logistics,Delta,Ika South,"NO 133, BALAKE STREET, BY EBEYE JUNCTION, AGBOR","ABC Logistics, NO 133, BALAKE STREET, BY EBEYE JUNCTION, AGBOR, Ika South, Delta",6.2635533,6.1988902
ABC Logistics,Gombe,Gombe,"1 UBAIDA ACADEMY ROAD, CLOSE TO REDEEMED CHURCH,GOMBE","ABC Logistics, 1 UBAIDA ACADEMY ROAD, CLOSE TO REDEEMED CHURCH,GOMBE, Gombe, Gombe",10.2876854,11.1080327
ABC Logistics,Adamawa,Yola North,"30 ATIKU ABUBAKAR WAY(SABRU HOUSE) 2ND FLOOR,JIMETA-YOLA","ABC Logistics, 30 ATIKU ABUBAKAR WAYSABRU HOUSE 2ND FLOOR,JIMETAYOLA, Yola North, Adamawa",9.1737191,12.4151335
ABC Logistics,Sokoto,Sokoto North,"6 AHMADU BELLO WAY, SOKOTO","ABC Logistics, 6 AHMADU BELLO WAY, SOKOTO, Sokoto North, Sokoto",13.047943,5.2321795
ABC Logistics,Kebbi,Birnin Kebbi,"SHOP 4 (DOWN FLOOR) JIKA MEMORIAL PLAZA, OPP. KABIR ART BELLO WAY, BIRIN KEBBI","ABC Logistics, SHOP 4 DOWN FLOOR JIKA MEMORIAL PLAZA, OPP KABIR ART BELLO WAY, BIRIN KEBBI, Birnin Kebbi, Kebbi",12.4525208,4.1998323
ABC Logistics,Katsina,Kaura Namoda,BEHIND GTBANK NEW LAYOUT KOHAR KAURA KATSINA,"ABC Logistics, BEHIND GTBANK NEW LAYOUT KOHAR KAURA KATSINA, Kaura Namoda, Katsina",12.5951892,6.5863469
ABC Logistics,Bauchi,Bauchi,"10 GIDA MAI JOS ROAD, OPP.FED.ROAD SAFETY COMMISSION, BAUCHI","ABC Logistics, 10 GIDA MAI JOS ROAD, OPPFEDROAD SAFETY COMMISSION, BAUCHI, Bauchi, Bauchi",10.3205835,9.8192978
ABC Logistics,Niger,Minna,"8,UNITY BLOCK ,SHIRORO ROAD,TUNGA, MINNA","ABC Logistics, 8,UNITY BLOCK ,SHIRORO ROAD,TUNGA, MINNA, Minna, Niger",9.5892434,6.549879
ABC Logistics,Niger,Suleja,"No 1, E.O SAWYER CLOSE, BAKIAKU KADUNA ROAD (OPP NEPA OFFICE) SULEJA","ABC Logistics, No 1, EO SAWYER CLOSE, BAKIAKU KADUNA ROAD OPP NEPA OFFICE SULEJA, Suleja, Niger",9.1701391,7.1860979
ABC Logistics,Yobe,Damaturu,"56 SABON PEGI WARD,CLOSE TO NHIS OFFICE,DAMATURU","ABC Logistics, 56 SABON PEGI WARD,CLOSE TO NHIS OFFICE,DAMATURU, Damaturu, Yobe",11.7480934,11.9733265
